[{"OBJECT_NAME":"ZHONGXING-12","OBJECT_ID":"2012-067A","EPOCH":"2026-04-25T22:34:57.183168","MEAN_MOTION":1.00271195,"ECCENTRICITY":0.00031513,"INCLINATION":0.0444,"RA_OF_ASC_NODE":71.2993,"ARG_OF_PERICENTER":310.3073,"MEAN_ANOMALY":258.5751,"EPHEMERIS_TYPE":0,"CLASSIFICATION_TYPE":"U","NORAD_CAT_ID":39017,"ELEMENT_SET_NO":999,"REV_AT_EPOCH":4898,"BSTAR":0,"MEAN_MOTION_DOT":-2.2e-6,"MEAN_MOTION_DDOT":0},{"OBJECT_NAME":"EUTELSAT 70B","OBJECT_ID":"2012-069A","EPOCH":"2026-04-25T22:59:38.461920","MEAN_MOTION":1.00271447,"ECCENTRICITY":0.00050943,"INCLINATION":0.0694,"RA_OF_ASC_NODE":16.4292,"ARG_OF_PERICENTER":15.8514,"MEAN_ANOMALY":237.081,"EPHEMERIS_TYPE":0,"CLASSIFICATION_TYPE":"U","NORAD_CAT_ID":39020,"ELEMENT_SET_NO":999,"REV_AT_EPOCH":4898,"BSTAR":0,"MEAN_MOTION_DOT":-5.7e-7,"MEAN_MOTION_DDOT":0},{"OBJECT_NAME":"YAMAL 402","OBJECT_ID":"2012-070A","EPOCH":"2026-04-25T22:25:35.580576","MEAN_MOTION":1.00271049,"ECCENTRICITY":0.0003871,"INCLINATION":1.1323,"RA_OF_ASC_NODE":84.7493,"ARG_OF_PERICENTER":303.8325,"MEAN_ANOMALY":216.6582,"EPHEMERIS_TYPE":0,"CLASSIFICATION_TYPE":"U","NORAD_CAT_ID":39022,"ELEMENT_SET_NO":999,"REV_AT_EPOCH":4887,"BSTAR":0,"MEAN_MOTION_DOT":7.4e-7,"MEAN_MOTION_DDOT":0},{"OBJECT_NAME":"SKYNET 5D","OBJECT_ID":"2012-075A","EPOCH":"2026-04-25T23:20:54.412800","MEAN_MOTION":1.00272223,"ECCENTRICITY":0.00036339,"INCLINATION":0.0707,"RA_OF_ASC_NODE":4.7715,"ARG_OF_PERICENTER":27.9258,"MEAN_ANOMALY":224.2557,"EPHEMERIS_TYPE":0,"CLASSIFICATION_TYPE":"U","NORAD_CAT_ID":39034,"ELEMENT_SET_NO":999,"REV_AT_EPOCH":4863,"BSTAR":0,"MEAN_MOTION_DOT":8.6e-7,"MEAN_MOTION_DDOT":0},{"OBJECT_NAME":"MEXSAT 3","OBJECT_ID":"2012-075B","EPOCH":"2026-04-25T21:37:10.225920","MEAN_MOTION":1.00268611,"ECCENTRICITY":0.00019725,"INCLINATION":0.0034,"RA_OF_ASC_NODE":132.3067,"ARG_OF_PERICENTER":281.655,"MEAN_ANOMALY":9.4588,"EPHEMERIS_TYPE":0,"CLASSIFICATION_TYPE":"U","NORAD_CAT_ID":39035,"ELEMENT_SET_NO":999,"REV_AT_EPOCH":652,"BSTAR":0,"MEAN_MOTION_DOT":-3.9e-7,"MEAN_MOTION_DDOT":0},{"OBJECT_NAME":"TDRS 11","OBJECT_ID":"2013-004A","EPOCH":"2026-04-25T22:00:44.487648","MEAN_MOTION":1.00264257,"ECCENTRICITY":0.00054236,"INCLINATION":3.4447,"RA_OF_ASC_NODE":30.3405,"ARG_OF_PERICENTER":0.8571,"MEAN_ANOMALY":338.772,"EPHEMERIS_TYPE":0,"CLASSIFICATION_TYPE":"U","NORAD_CAT_ID":39070,"ELEMENT_SET_NO":999,"REV_AT_EPOCH":4616,"BSTAR":0,"MEAN_MOTION_DOT":6.8e-7,"MEAN_MOTION_DDOT":0},{"OBJECT_NAME":"AMAZONAS 3","OBJECT_ID":"2013-006A","EPOCH":"2026-04-25T20:57:38.714400","MEAN_MOTION":1.00271122,"ECCENTRICITY":0.00014656,"INCLINATION":0.0209,"RA_OF_ASC_NODE":171.1009,"ARG_OF_PERICENTER":206.5921,"MEAN_ANOMALY":89.6126,"EPHEMERIS_TYPE":0,"CLASSIFICATION_TYPE":"U","NORAD_CAT_ID":39078,"ELEMENT_SET_NO":999,"REV_AT_EPOCH":4439,"BSTAR":0,"MEAN_MOTION_DOT":-2.96e-6,"MEAN_MOTION_DDOT":0},{"OBJECT_NAME":"AZERSPACE 1","OBJECT_ID":"2013-006B","EPOCH":"2026-04-25T22:51:38.515968","MEAN_MOTION":1.00270826,"ECCENTRICITY":0.00019325,"INCLINATION":0.0171,"RA_OF_ASC_NODE":104.0796,"ARG_OF_PERICENTER":332.2211,"MEAN_ANOMALY":166.5564,"EPHEMERIS_TYPE":0,"CLASSIFICATION_TYPE":"U","NORAD_CAT_ID":39079,"ELEMENT_SET_NO":999,"REV_AT_EPOCH":4828,"BSTAR":0,"MEAN_MOTION_DOT":0,"MEAN_MOTION_DDOT":0},{"OBJECT_NAME":"SBIRS GEO-2 (USA 241)","OBJECT_ID":"2013-011A","EPOCH":"2026-04-25T16:47:35.799360","MEAN_MOTION":1.00271371,"ECCENTRICITY":0.00022422,"INCLINATION":4.3769,"RA_OF_ASC_NODE":52.4467,"ARG_OF_PERICENTER":338.3694,"MEAN_ANOMALY":24.9983,"EPHEMERIS_TYPE":0,"CLASSIFICATION_TYPE":"U","NORAD_CAT_ID":39120,"ELEMENT_SET_NO":999,"REV_AT_EPOCH":4801,"BSTAR":0,"MEAN_MOTION_DOT":-2.97e-6,"MEAN_MOTION_DDOT":0},{"OBJECT_NAME":"EUTELSAT 117 WEST A","OBJECT_ID":"2013-012A","EPOCH":"2026-04-25T21:36:40.272768","MEAN_MOTION":1.00270393,"ECCENTRICITY":0.00025615,"INCLINATION":0.0194,"RA_OF_ASC_NODE":305.8013,"ARG_OF_PERICENTER":74.4515,"MEAN_ANOMALY":41.0286,"EPHEMERIS_TYPE":0,"CLASSIFICATION_TYPE":"U","NORAD_CAT_ID":39122,"ELEMENT_SET_NO":999,"REV_AT_EPOCH":4790,"BSTAR":0,"MEAN_MOTION_DOT":-2.6e-7,"MEAN_MOTION_DDOT":0},{"OBJECT_NAME":"ANIK G1","OBJECT_ID":"2013-014A","EPOCH":"2026-04-25T21:39:25.009920","MEAN_MOTION":1.00269303,"ECCENTRICITY":0.00021897,"INCLINATION":0.0232,"RA_OF_ASC_NODE":107.2533,"ARG_OF_PERICENTER":268.6937,"MEAN_ANOMALY":55.5217,"EPHEMERIS_TYPE":0,"CLASSIFICATION_TYPE":"U","NORAD_CAT_ID":39127,"ELEMENT_SET_NO":999,"REV_AT_EPOCH":4772,"BSTAR":0,"MEAN_MOTION_DOT":0,"MEAN_MOTION_DDOT":0},{"OBJECT_NAME":"ZHONGXING-11","OBJECT_ID":"2013-020A","EPOCH":"2026-04-24T17:32:26.349792","MEAN_MOTION":1.00274217,"ECCENTRICITY":0.0001494,"INCLINATION":0.0222,"RA_OF_ASC_NODE":295.6622,"ARG_OF_PERICENTER":102.4154,"MEAN_ANOMALY":175.6572,"EPHEMERIS_TYPE":0,"CLASSIFICATION_TYPE":"U","NORAD_CAT_ID":39157,"ELEMENT_SET_NO":999,"REV_AT_EPOCH":4736,"BSTAR":0,"MEAN_MOTION_DOT":-3.05e-6,"MEAN_MOTION_DDOT":0},{"OBJECT_NAME":"EUTELSAT 7B","OBJECT_ID":"2013-022A","EPOCH":"2026-04-25T22:11:59.384832","MEAN_MOTION":1.00271213,"ECCENTRICITY":0.00059052,"INCLINATION":0.0752,"RA_OF_ASC_NODE":19.9765,"ARG_OF_PERICENTER":357.5106,"MEAN_ANOMALY":176.4297,"EPHEMERIS_TYPE":0,"CLASSIFICATION_TYPE":"U","NORAD_CAT_ID":39163,"ELEMENT_SET_NO":999,"REV_AT_EPOCH":4742,"BSTAR":0,"MEAN_MOTION_DOT":3.4e-7,"MEAN_MOTION_DDOT":0},{"OBJECT_NAME":"WGS F5 (USA 243)","OBJECT_ID":"2013-024A","EPOCH":"2026-04-25T21:55:01.013952","MEAN_MOTION":1.00271709,"ECCENTRICITY":3.743e-5,"INCLINATION":0.0118,"RA_OF_ASC_NODE":240.2311,"ARG_OF_PERICENTER":77.7192,"MEAN_ANOMALY":172.2283,"EPHEMERIS_TYPE":0,"CLASSIFICATION_TYPE":"U","NORAD_CAT_ID":39168,"ELEMENT_SET_NO":999,"REV_AT_EPOCH":4665,"BSTAR":0,"MEAN_MOTION_DOT":-2.98e-6,"MEAN_MOTION_DDOT":0},{"OBJECT_NAME":"SES-6","OBJECT_ID":"2013-026A","EPOCH":"2026-04-25T21:58:23.189952","MEAN_MOTION":1.0027121,"ECCENTRICITY":0.00023812,"INCLINATION":0.0245,"RA_OF_ASC_NODE":342.6069,"ARG_OF_PERICENTER":55.9604,"MEAN_ANOMALY":104.4479,"EPHEMERIS_TYPE":0,"CLASSIFICATION_TYPE":"U","NORAD_CAT_ID":39172,"ELEMENT_SET_NO":999,"REV_AT_EPOCH":4720,"BSTAR":0,"MEAN_MOTION_DOT":-2.75e-6,"MEAN_MOTION_DDOT":0},{"OBJECT_NAME":"IRNSS-1A","OBJECT_ID":"2013-034A","EPOCH":"2026-04-25T22:25:35.580576","MEAN_MOTION":1.00272234,"ECCENTRICITY":0.00170372,"INCLINATION":35.61,"RA_OF_ASC_NODE":64.6165,"ARG_OF_PERICENTER":187.4243,"MEAN_ANOMALY":353.2554,"EPHEMERIS_TYPE":0,"CLASSIFICATION_TYPE":"U","NORAD_CAT_ID":39199,"ELEMENT_SET_NO":999,"REV_AT_EPOCH":4684,"BSTAR":0,"MEAN_MOTION_DOT":7.5e-7,"MEAN_MOTION_DDOT":0},{"OBJECT_NAME":"MUOS-2","OBJECT_ID":"2013-036A","EPOCH":"2026-04-25T18:13:38.476704","MEAN_MOTION":1.0027078,"ECCENTRICITY":0.00505253,"INCLINATION":4.8919,"RA_OF_ASC_NODE":45.4347,"ARG_OF_PERICENTER":180.6758,"MEAN_ANOMALY":73.0089,"EPHEMERIS_TYPE":0,"CLASSIFICATION_TYPE":"U","NORAD_CAT_ID":39206,"ELEMENT_SET_NO":999,"REV_AT_EPOCH":4666,"BSTAR":0,"MEAN_MOTION_DOT":-2.4e-7,"MEAN_MOTION_DDOT":0}]
